{
  "norad_id": 52473,
  "name": "STARLINK-3879",
  "history": [
    {
      "epoch": "2026-05-03T19:47:24.076608Z",
      "apogee_km": 540.6359674983423,
      "perigee_km": 538.8732887115011,
      "latitude_deg": 3.012085448508157e-05,
      "longitude_deg": 13.034978803821325,
      "height_km": 540.580183357456,
      "semi_major_axis_km": 6917.891628104921,
      "eccentricity": 0.0001274,
      "inclination_deg": 53.2165,
      "raan_deg": 171.608,
      "arg_perigee_deg": 85.4331,
      "mean_anomaly_deg": 274.6807,
      "mean_motion_rev_day": 15.08836323
    },
    {
      "epoch": "2026-05-04T10:05:52.308384Z",
      "apogee_km": 540.6370029178179,
      "perigee_km": 538.8719720836971,
      "latitude_deg": 5.837036448901006e-06,
      "longitude_deg": 155.1542241186543,
      "height_km": 540.5883952217223,
      "semi_major_axis_km": 6917.891487500757,
      "eccentricity": 0.00012757,
      "inclination_deg": 53.2165,
      "raan_deg": 168.9325,
      "arg_perigee_deg": 85.983,
      "mean_anomaly_deg": 274.1308,
      "mean_motion_rev_day": 15.08836369
    },
    {
      "epoch": "2026-05-05T11:32:01.597056Z",
      "apogee_km": 540.5573321098891,
      "perigee_km": 538.8749102308202,
      "latitude_deg": 4.4277404269746866e-05,
      "longitude_deg": 127.81413012807624,
      "height_km": 540.6012545138425,
      "semi_major_axis_km": 6917.853121170355,
      "eccentricity": 0.0001216,
      "inclination_deg": 53.2163,
      "raan_deg": 164.1757,
      "arg_perigee_deg": 89.2745,
      "mean_anomaly_deg": 270.8387,
      "mean_motion_rev_day": 15.08848921
    },
    {
      "epoch": "2026-05-06T08:12:03.470112Z",
      "apogee_km": 540.6023036305214,
      "perigee_km": 538.9079734879451,
      "latitude_deg": 2.058941314513829e-05,
      "longitude_deg": 173.0898336000662,
      "height_km": 540.9766985891652,
      "semi_major_axis_km": 6917.892138559233,
      "eccentricity": 0.00012246,
      "inclination_deg": 53.2163,
      "raan_deg": 160.308,
      "arg_perigee_deg": 112.6077,
      "mean_anomaly_deg": 247.5045,
      "mean_motion_rev_day": 15.08836156
    },
    {
      "epoch": "2026-05-07T09:38:14.111808Z",
      "apogee_km": 540.4836363712056,
      "perigee_km": 539.0115105339755,
      "latitude_deg": 3.3231613419296526e-06,
      "longitude_deg": 145.74354517789203,
      "height_km": 540.6712434992338,
      "semi_major_axis_km": 6917.88457345259,
      "eccentricity": 0.0001064,
      "inclination_deg": 53.216,
      "raan_deg": 155.5507,
      "arg_perigee_deg": 92.1574,
      "mean_anomaly_deg": 267.954,
      "mean_motion_rev_day": 15.08838631
    },
    {
      "epoch": "2026-05-08T19:01:20.515584Z",
      "apogee_km": 540.4997555823702,
      "perigee_km": 539.0414606585782,
      "latitude_deg": 1.722192527002942e-05,
      "longitude_deg": -2.647909027591225,
      "height_km": 540.6374507797387,
      "semi_major_axis_km": 6917.907608120474,
      "eccentricity": 0.0001054,
      "inclination_deg": 53.2161,
      "raan_deg": 149.307,
      "arg_perigee_deg": 87.7097,
      "mean_anomaly_deg": 272.4016,
      "mean_motion_rev_day": 15.08831095
    },
    {
      "epoch": "2026-05-09T10:55:12.059616Z",
      "apogee_km": 540.5027480638382,
      "perigee_km": 539.0264678606991,
      "latitude_deg": -2.1292625871519872e-05,
      "longitude_deg": 115.260600722561,
      "height_km": 540.6296292813142,
      "semi_major_axis_km": 6917.901607962269,
      "eccentricity": 0.0001067,
      "inclination_deg": 53.216,
      "raan_deg": 146.3332,
      "arg_perigee_deg": 87.5978,
      "mean_anomaly_deg": 272.5136,
      "mean_motion_rev_day": 15.08833058
    },
    {
      "epoch": "2026-05-10T07:35:12.929568Z",
      "apogee_km": 540.4765043170337,
      "perigee_km": 539.0331553656551,
      "latitude_deg": -1.5097626017117264e-05,
      "longitude_deg": 160.54261937092585,
      "height_km": 540.5883381158537,
      "semi_major_axis_km": 6917.891829841345,
      "eccentricity": 0.00010432,
      "inclination_deg": 53.2159,
      "raan_deg": 142.4676,
      "arg_perigee_deg": 85.0335,
      "mean_anomaly_deg": 275.0776,
      "mean_motion_rev_day": 15.08836257
    },
    {
      "epoch": "2026-05-11T16:58:18.528960Z",
      "apogee_km": 540.4707825802598,
      "perigee_km": 539.0069600458901,
      "latitude_deg": -1.972867519606221e-05,
      "longitude_deg": 12.153515693326328,
      "height_km": 540.537325317917,
      "semi_major_axis_km": 6917.875871313075,
      "eccentricity": 0.0001058,
      "inclination_deg": 53.2159,
      "raan_deg": 136.2229,
      "arg_perigee_deg": 82.3429,
      "mean_anomaly_deg": 277.7683,
      "mean_motion_rev_day": 15.08841478
    },
    {
      "epoch": "2026-05-12T16:49:05.490336Z",
      "apogee_km": 540.4883533155808,
      "perigee_km": 538.9885579168022,
      "latitude_deg": 7.887251063324834e-06,
      "longitude_deg": 9.017928201202041,
      "height_km": 540.5220795318319,
      "semi_major_axis_km": 6917.875455616191,
      "eccentricity": 0.0001084,
      "inclination_deg": 53.2161,
      "raan_deg": 131.7623,
      "arg_perigee_deg": 81.3843,
      "mean_anomaly_deg": 278.7272,
      "mean_motion_rev_day": 15.08841614
    },
    {
      "epoch": "2026-05-13T08:42:56.921184Z",
      "apogee_km": 540.5149319495595,
      "perigee_km": 538.9667108931244,
      "latitude_deg": -1.321791544273428e-05,
      "longitude_deg": 126.9271256593305,
      "height_km": 540.5332340435197,
      "semi_major_axis_km": 6917.877821421342,
      "eccentricity": 0.0001119,
      "inclination_deg": 53.216,
      "raan_deg": 128.7887,
      "arg_perigee_deg": 82.317,
      "mean_anomaly_deg": 277.7949,
      "mean_motion_rev_day": 15.0884084
    }
  ]
}